NORAD_CAT_ID,OBJECT_NAME,OBJECT_TYPE,EPOCH,MEAN_MOTION,ECCENTRICITY,INCLINATION,RA_OF_ASC_NODE,ARG_OF_PERICENTER,MEAN_ANOMALY,BSTAR,MEAN_MOTION_DOT,MEAN_MOTION_DDOT,TLE_LINE0,TLE_LINE1,TLE_LINE2,SEMIMAJOR_AXIS,PERIOD,APOGEE,PERIGEE,DECAYED
49766.0,STARLINK-3190,PAYLOAD,2022-12-29 10:21:00,15.08823376,0.0001515,53.216,334.6649,58.0404,302.0736,-0.00025973,-4.417e-05,0.0,0 STARLINK-3190,1 49766U 21115AU  22363.43125737 -.00004417  00000-0 -25973-3 0  9997,2 49766  53.2160 334.6649 0001515  58.0404 302.0736 15.08823376 59614,6917.931,95.439,540.844,538.748,0.0
49766.0,STARLINK-3190,PAYLOAD,2022-12-30 08:36:25,15.08841264,0.0001408,53.2147,330.5013,69.1612,290.9531,0.00058897,9.098e-05,0.0,0 STARLINK-3190,1 49766U 21115AU  22364.35862388  .00009098  00000-0  58897-3 0  9998,2 49766  53.2147 330.5013 0001408  69.1612 290.9531 15.08841264 60867,6917.877,95.437,540.716,538.7669999999998,0.0
49766.0,STARLINK-3190,PAYLOAD,2022-12-31 03:41:01,15.08880016,0.0001274999999999,53.2151,326.9322,67.6935,292.4192,0.0011433,0.00017974,0.0,0 STARLINK-3190,1 49766U 21115AU  22365.15349050  .00017974  00000-0  11433-2 0  9999,2 49766  53.2151 326.9322 0001275  67.6935 292.4192 15.08880016 60988,6917.7580000000025,95.435,540.505,538.741,0.0
49766.0,STARLINK-3190,PAYLOAD,2022-12-31 06:51:47,15.08879546,0.000136,53.215,326.3375,70.0981,290.0157,0.00093486,0.00014638,0.0,0 STARLINK-3190,1 49766U 21115AU  22365.28596812  .00014638  00000-0  93486-3 0  9996,2 49766  53.2150 326.3375 0001360  70.0981 290.0157 15.08879546 59892,6917.76,95.435,540.565,538.684,0.0
49766.0,STARLINK-3190,PAYLOAD,2023-01-01 06:42:34,15.08805472,0.0001578,53.2145,321.8769,64.55,295.5655,0.00077369,0.00012035,0.0,0 STARLINK-3190,1 49766U 21115AU  23001.27956669  .00012035  00000-0  77369-3 0  9994,2 49766  53.2145 321.8769 0001578  64.5500 295.5655 15.08805472 61151,6917.986,95.44,540.943,538.759,0.0
49766.0,STARLINK-3190,PAYLOAD,2023-01-01 14:39:30,15.08813661,0.0001554,53.2142,320.3902,68.6749,291.4409,0.0002625,3.889e-05,0.0,0 STARLINK-3190,1 49766U 21115AU  23001.61077337  .00003889  00000-0  26250-3 0  9998,2 49766  53.2142 320.3902 0001554  68.6749 291.4409 15.08813661 60098,6917.9609999999975,95.439,540.901,538.751,0.0
49766.0,STARLINK-3190,PAYLOAD,2023-01-02 06:33:23,15.08818072,0.000166,53.215,317.4147,74.7451,285.3724,0.00075359,0.00011719,0.0,0 STARLINK-3190,1 49766U 21115AU  23002.27318879  .00011719  00000-0  75359-3 0  9995,2 49766  53.2150 317.4147 0001660  74.7451 285.3724 15.08818072 61309,6917.946999999999,95.439,540.961,538.664,0.0
49766.0,STARLINK-3190,PAYLOAD,2023-01-02 14:30:19,15.08833593,0.0001641,53.2158,315.928,74.9022,285.2151,0.00090349,0.00014118,0.0,0 STARLINK-3190,1 49766U 21115AU  23002.60438911  .00014118  00000-0  90349-3 0  9994,2 49766  53.2158 315.9280 0001641  74.9022 285.2151 15.08833593 60243,6917.9,95.438,540.9,538.63,0.0
49766.0,STARLINK-3190,PAYLOAD,2023-01-03 06:24:10,15.08847457,0.0001638,53.2149,312.9562,67.4326,292.6839,0.00066386,0.00010295,0.0,0 STARLINK-3190,1 49766U 21115AU  23003.26678881  .00010295  00000-0  66386-3 0  9995,2 49766  53.2149 312.9562 0001638  67.4326 292.6839 15.08847457 61456,6917.858,95.437,540.856,538.589,0.0
49766.0,STARLINK-3190,PAYLOAD,2023-01-04 03:04:11,15.08838295,0.0001481,53.2154,309.0893,63.9676,296.1468,0.00013349,1.837e-05,0.0,0 STARLINK-3190,1 49766U 21115AU  23004.12791136  .00001837  00000-0  13349-3 0  9993,2 49766  53.2154 309.0893 0001481  63.9676 296.1468 15.08838295 61582,6917.886,95.438,540.775,538.726,0.0
49766.0,STARLINK-3190,PAYLOAD,2023-01-04 12:36:30,15.08847457,0.0001488,53.2155,307.306,64.1865,295.928,0.00029777,4.455e-05,0.0,0 STARLINK-3190,1 49766U 21115AU  23004.52534892  .00004455  00000-0  29777-3 0  9992,2 49766  53.2155 307.3060 0001488  64.1865 295.9280 15.08847457 60533,6917.858,95.437,540.752,538.693,0.0
49766.0,STARLINK-3190,PAYLOAD,2023-01-04 20:33:25,15.08853365,0.0001441999999999,53.2151,305.8179,64.1215,295.9925,0.00034827,5.261e-05,0.0,0 STARLINK-3190,1 49766U 21115AU  23004.85654483  .00005261  00000-0  34827-3 0  9995,2 49766  53.2151 305.8179 0001442  64.1215 295.9925 15.08853365 61691,6917.84,95.437,540.702,538.707,0.0
49766.0,STARLINK-3190,PAYLOAD,2023-01-05 12:27:15,15.08873478,0.0001367,53.2157,302.8454,71.2075,288.9066,0.00069095,0.00010736,0.0,0 STARLINK-3190,1 49766U 21115AU  23005.51893290  .00010736  00000-0  69095-3 0  9998,2 49766  53.2157 302.8454 0001367  71.2075 288.9066 15.08873478 61795,6917.778,95.435,540.589,538.697,0.0
49766.0,STARLINK-3190,PAYLOAD,2023-01-06 05:56:30,15.08826286,0.0001541,53.2155,299.5745,69.5746,290.5412,-0.001104,-0.00017809,0.0,0 STARLINK-3190,1 49766U 21115AU  23006.24757373 -.00017809  00000-0 -11040-2 0  9996,2 49766  53.2155 299.5745 0001541  69.5746 290.5412 15.08826286 61909,6917.922,95.438,540.8530000000002,538.721,0.0
49766.0,STARLINK-3190,PAYLOAD,2023-01-06 18:39:36,15.08822173,0.0001207,53.2148,297.1954,74.835,285.2776,-8.834899999999999e-05,-1.693e-05,0.0,0 STARLINK-3190,1 49766U 21115AU  23006.77750058 -.00001693  00000-0 -88349-4 0  9999,2 49766  53.2148 297.1954 0001207  74.8350 285.2776 15.08822173 60876,6917.935,95.439,540.635,538.965,0.0
49766.0,STARLINK-3190,PAYLOAD,2023-01-07 04:11:55,15.08838062,0.0001662,53.215,295.4118,66.7511,293.3656,0.0011957,0.00018792,0.0,0 STARLINK-3190,1 49766U 21115AU  23007.17494597  .00018792  00000-0  11957-2 0  9992,2 49766  53.2150 295.4118 0001662  66.7511 293.3656 15.08838062 62048,6917.886,95.438,540.901,538.602,0.0
49766.0,STARLINK-3190,PAYLOAD,2023-01-07 12:08:50,15.08854264,0.0001683,53.2148,293.9251,67.1071,293.0098,0.0015067,0.00023782,0.0,0 STARLINK-3190,1 49766U 21115AU  23007.50614497  .00023782  00000-0  15067-2 0  9993,2 49766  53.2148 293.9251 0001683  67.1071 293.0098 15.08854264 60985,6917.837,95.437,540.866,538.538,0.0
49766.0,STARLINK-3190,PAYLOAD,2023-01-08 11:59:38,15.08848156,0.0001486,53.2147,289.464,73.6414,286.4741,0.00087684,0.00013698,0.0,0 STARLINK-3190,1 49766U 21115AU  23008.49974863  .00013698  00000-0  87684-3 0  9998,2 49766  53.2147 289.4640 0001486  73.6414 286.4741 15.08848156 62245,6917.855,95.437,540.748,538.692,0.0
49766.0,STARLINK-3190,PAYLOAD,2023-01-09 02:18:06,15.08846623,0.0001703,53.2153,286.7878,75.1297,284.9884,0.00052591,8.093e-05,0.0,0 STARLINK-3190,1 49766U 21115AU  23009.09590943  .00008093  00000-0  52591-3 0  9990,2 49766  53.2153 286.7878 0001703  75.1297 284.9884 15.08846623 62331,6917.86,95.437,540.903,538.547,0.0
49766.0,STARLINK-3190,PAYLOAD,2023-01-09 11:50:25,15.08843437,0.0001737,53.2147,285.0041,73.2015,286.9168,0.00027547,4.099e-05,0.0,0 STARLINK-3190,1 49766U 21115AU  23009.49334961  .00004099  00000-0  27547-3 0  9995,2 49766  53.2147 285.0041 0001737  73.2015 286.9168 15.08843437 61282,6917.87,95.437,540.937,538.533,0.0
49766.0,STARLINK-3190,PAYLOAD,2023-01-10 03:44:16,15.08838304,0.0001446,53.2143,282.0297,70.3836,289.7312,0.0001483,2.073e-05,0.0,0 STARLINK-3190,1 49766U 21115AU  23010.15575139  .00002073  00000-0  14830-3 0  9995,2 49766  53.2143 282.0297 0001446  70.3836 289.7312 15.08838304 62497,6917.886,95.438,540.751,538.75,0.0
49766.0,STARLINK-3190,PAYLOAD,2023-01-11 00:24:17,15.08843122,0.0001416999999999,53.2143,278.1637,69.4245,290.6899,6.4333e-05,7.36e-06,0.0,0 STARLINK-3190,1 49766U 21115AU  23011.01686924  .00000736  00000-0  64333-4 0  9994,2 49766  53.2143 278.1637 0001417  69.4245 290.6899 15.08843122 61519,6917.871,95.437,540.716,538.756,0.0
49766.0,STARLINK-3190,PAYLOAD,2023-01-11 19:28:55,15.08833388,0.0001426,53.215,274.5948,77.4027,282.7124,1.7878e-06,-2.59e-06,0.0,0 STARLINK-3190,1 49766U 21115AU  23011.81175575 -.00000259  00000-0  17878-5 0  9991,2 49766  53.2150 274.5948 0001426  77.4027 282.7124 15.08833388 61638,6917.901,95.438,540.752,538.779,0.0
49766.0,STARLINK-3190,PAYLOAD,2023-01-12 00:15:04,15.08840256,0.0001190999999999,53.2129,273.7077,71.6613,288.4508,0.00013477,1.858e-05,0.0,0 STARLINK-3190,1 49766U 21115AU  23012.01047192  .00001858  00000-0  13477-3 0  9991,2 49766  53.2129 273.7077 0001191  71.6613 288.4508 15.08840256 62771,6917.88,95.438,540.569,538.9209999999998,0.0
49766.0,STARLINK-3190,PAYLOAD,2023-01-12 16:08:56,15.08834852,0.0001791,53.2139,270.7328,70.7789,289.3397,3.6309e-05,2.9e-06,0.0,0 STARLINK-3190,1 49766U 21115AU  23012.67287825  .00000290  00000-0  36309-4 0  9991,2 49766  53.2139 270.7328 0001791  70.7789 289.3397 15.08834852 62870,6917.896,95.438,541.0,538.5219999999998,0.0
49766.0,STARLINK-3190,PAYLOAD,2023-01-12 22:30:29,15.08828622,0.0001294,53.215,269.5404,92.241,267.873,8.212299999999999e-05,1.019e-05,0.0,0 STARLINK-3190,1 49766U 21115AU  23012.93784210  .00001019  00000-0  82123-4 0  9995,2 49766  53.2150 269.5404 0001294  92.2410 267.8730 15.08828622 61804,6917.915,95.438,540.675,538.885,0.0
49766.0,STARLINK-3190,PAYLOAD,2023-01-13 12:48:58,15.08834723,0.0001384,53.215,266.8638,83.1849,276.9301,-3.9518e-05,-9.17e-06,0.0,0 STARLINK-3190,1 49766U 21115AU  23013.53400708 -.00000917  00000-0 -39518-4 0  9997,2 49766  53.2150 266.8638 0001384  83.1849 276.9301 15.08834723 61891,6917.897,95.438,540.719,538.804,0.0
49766.0,STARLINK-3190,PAYLOAD,2023-01-13 19:10:30,15.08840027,0.0001411,53.2146,265.675,84.7938,275.3215,1.1679e-05,-1.02e-06,0.0,0 STARLINK-3190,1 49766U 21115AU  23013.79896300 -.00000102  00000-0  11679-4 0  9995,2 49766  53.2146 265.6750 0001411  84.7938 275.3215 15.08840027 61931,6917.88,95.438,540.721,538.769,0.0
49766.0,STARLINK-3190,PAYLOAD,2023-01-14 01:32:02,15.08840228,0.000147,53.2144,264.4857,86.7409,273.3751,1.4164e-05,-6.3e-07,0.0,0 STARLINK-3190,1 49766U 21115AU  23014.06392311 -.00000063  00000-0  14164-4 0  9997,2 49766  53.2144 264.4857 0001470  86.7409 273.3751 15.08840228 63088,6917.88,95.438,540.762,538.7280000000001,0.0
